{"type": "FeatureCollection", "features": [ {"type": "Feature", "properties": {"norad_id": 41836, "name": "HIMAWARI-9", "group": "weather", "lat": -0.038273143697369935, "lon": -51.703656439541426, "alt_km": 35781.16489986941, "timestamp": "2025-12-23T05:02:11.666780+00:00", "meta": {"OBJECT_NAME": "HIMAWARI-9", "OBJECT_ID": "2016-064A", "EPOCH": "2025-12-22T13:50:05.574624", "MEAN_MOTION": 1.00268363, "ECCENTRICITY": 0.00015821, "INCLINATION": 0.0162, "RA_OF_ASC_NODE": 28.6262, "ARG_OF_PERICENTER": 306.4522, "MEAN_ANOMALY": 104.5911, "EPHEMERIS_TYPE": 0, "CLASSIFICATION_TYPE": "U", "NORAD_CAT_ID": 41836, "ELEMENT_SET_NO": 999, "REV_AT_EPOCH": 3343, "BSTAR": 0, "MEAN_MOTION_DOT": 0, "MEAN_MOTION_DDOT": 0}, "tle": {"line1": "1 41836U 16064A   25356.57645341  .00000000  00000+0  00000+0 0  9993", "line2": "2 41836   0.0162  28.6262 0001582 306.4522 104.5911  1.00268363 33430"}}, "geometry": {"type": "Point", "coordinates": [-51.703656439541426, -0.038273143697369935]}}, {"type": "Feature", "properties": {"norad_id": 41866, "name": "GOES 16", "group": "weather", "lat": -0.024825499570416524, "lon": 62.893990329199475, "alt_km": 35797.988975560074, "timestamp": "2025-12-23T05:02:11.666793+00:00", "meta": {"OBJECT_NAME": "GOES 16", "OBJECT_ID": "2016-071A", "EPOCH": "2025-12-22T21:13:15.641184", "MEAN_MOTION": 1.00271947, "ECCENTRICITY": 0.00030773, "INCLINATION": 0.0726, "RA_OF_ASC_NODE": 102.8377, "ARG_OF_PERICENTER": 163.5746, "MEAN_ANOMALY": 38.9196, "EPHEMERIS_TYPE": 0, "CLASSIFICATION_TYPE": "U", "NORAD_CAT_ID": 41866, "ELEMENT_SET_NO": 999, "REV_AT_EPOCH": 3333, "BSTAR": 0, "MEAN_MOTION_DOT": -7e-07, "MEAN_MOTION_DDOT": 0}, "tle": {"line1": "1 41866U 16071A   25356.88420881 -.00000070  00000+0  00000+0 0  9996", "line2": "2 41866   0.0726 102.8377 0003077 163.5746  38.9196  1.00271947 33338"}}, "geometry": {"type": "Point", "coordinates": [62.893990329199475, -0.024825499570416524]}}, {"type": "Feature", "properties": {"norad_id": 41882, "name": "FENGYUN 4A", "group": "weather", "lat": -0.9326215383625112, "lon": -68.75005210616449, "alt_km": 35780.39023623088, "timestamp": "2025-12-23T05:02:11.666805+00:00", "meta": {"OBJECT_NAME": "FENGYUN 4A", "OBJECT_ID": "2016-077A", "EPOCH": "2025-12-19T13:51:06.687072", "MEAN_MOTION": 1.00266581, "ECCENTRICITY": 0.0004506, "INCLINATION": 1.866, "RA_OF_ASC_NODE": 82.3247, "ARG_OF_PERICENTER": 142.8816, "MEAN_ANOMALY": 194.7423, "EPHEMERIS_TYPE": 0, "CLASSIFICATION_TYPE": "U", "NORAD_CAT_ID": 41882, "ELEMENT_SET_NO": 999, "REV_AT_EPOCH": 3312, "BSTAR": 0, "MEAN_MOTION_DOT": -3.34e-06, "MEAN_MOTION_DDOT": 0}, "tle": {"line1": "1 41882U 16077A   25353.57716073 -.00000334  00000+0  00000+0 0  9997", "line2": "2 41882   1.8660  82.3247 0004506 142.8816 194.7423  1.00266581 33125"}}, "geometry": {"type": "Point", "coordinates": [-68.75005210616449, -0.9326215383625112]}}, {"type": "Feature", "properties": {"norad_id": 41884, "name": "CYGFM05", "group": "weather", "lat": 29.072303935172076, "lon": 105.99608486654557, "alt_km": 423.54067853198103, "timestamp": "2025-12-23T05:02:11.666816+00:00", "meta": {"OBJECT_NAME": "CYGFM05", "OBJECT_ID": "2016-078A", "EPOCH": "2025-12-22T16:07:46.878240", "MEAN_MOTION": 15.47988967, "ECCENTRICITY": 0.00107778, "INCLINATION": 34.9607, "RA_OF_ASC_NODE": 342.2342, "ARG_OF_PERICENTER": 269.5265, "MEAN_ANOMALY": 90.4222, "EPHEMERIS_TYPE": 0, "CLASSIFICATION_TYPE": "U", "NORAD_CAT_ID": 41884, "ELEMENT_SET_NO": 999, "REV_AT_EPOCH": 50130, "BSTAR": 0.00039002131, "MEAN_MOTION_DOT": 0.0002106, "MEAN_MOTION_DDOT": 0}, "tle": {"line1": "1 41884U 16078A   25356.67207035  .00021060  00000+0  39002-3 0  9993", "line2": "2 41884  34.9607 342.2342 0010777 269.5265  90.4222 15.47988967501305"}}, "geometry": {"type": "Point", "coordinates": [105.99608486654557, 29.072303935172076]}}, {"type": "Feature", "properties": {"norad_id": 41885, "name": "CYGFM04", "group": "weather", "lat": 33.47699881686155, "lon": 61.858823408220715, "alt_km": 414.48598242564094, "timestamp": "2025-12-23T05:02:11.666827+00:00", "meta": {"OBJECT_NAME": "CYGFM04", "OBJECT_ID": "2016-078B", "EPOCH": "2025-12-22T22:24:14.337792", "MEAN_MOTION": 15.50776662, "ECCENTRICITY": 0.000952, "INCLINATION": 34.9355, "RA_OF_ASC_NODE": 315.0053, "ARG_OF_PERICENTER": 296.129, "MEAN_ANOMALY": 63.8452, "EPHEMERIS_TYPE": 0, "CLASSIFICATION_TYPE": "U", "NORAD_CAT_ID": 41885, "ELEMENT_SET_NO": 999, "REV_AT_EPOCH": 50152, "BSTAR": 0.00040976315, "MEAN_MOTION_DOT": 0.00024424, "MEAN_MOTION_DDOT": 0}, "tle": {"line1": "1 41885U 16078B   25356.93349928  .00024424  00000+0  40976-3 0  9990", "line2": "2 41885  34.9355 315.0053 0009520 296.1290  63.8452 15.50776662501525"}}, "geometry": {"type": "Point", "coordinates": [61.858823408220715, 33.47699881686155]}}, {"type": "Feature", "properties": {"norad_id": 41886, "name": "CYGFM02", "group": "weather", "lat": 5.018170645381353, "lon": 124.15580300410814, "alt_km": 413.19246044051033, "timestamp": "2025-12-23T05:02:11.666837+00:00", "meta": {"OBJECT_NAME": "CYGFM02", "OBJECT_ID": "2016-078C", "EPOCH": "2025-12-22T22:07:40.177056", "MEAN_MOTION": 15.52186166, "ECCENTRICITY": 0.00110878, "INCLINATION": 34.9443, "RA_OF_ASC_NODE": 313.2737, "ARG_OF_PERICENTER": 296.9764, "MEAN_ANOMALY": 62.9827, "EPHEMERIS_TYPE": 0, "CLASSIFICATION_TYPE": "U", "NORAD_CAT_ID": 41886, "ELEMENT_SET_NO": 999, "REV_AT_EPOCH": 50165, "BSTAR": 0.0004079927, "MEAN_MOTION_DOT": 0.00025604, "MEAN_MOTION_DDOT": 0}, "tle": {"line1": "1 41886U 16078C   25356.92199279  .00025604  00000+0  40799-3 0  9996", "line2": "2 41886  34.9443 313.2737 0011087 296.9764  62.9827 15.52186166501654"}}, "geometry": {"type": "Point", "coordinates": [124.15580300410814, 5.018170645381353]}}, {"type": "Feature", "properties": {"norad_id": 41887, "name": "CYGFM01", "group": "weather", "lat": -4.763550987882136, "lon": 167.84903275154818, "alt_km": 418.91357552417594, "timestamp": "2025-12-23T05:02:11.666848+00:00", "meta": {"OBJECT_NAME": "CYGFM01", "OBJECT_ID": "2016-078D", "EPOCH": "2025-12-22T15:50:57.301152", "MEAN_MOTION": 15.48577323, "ECCENTRICITY": 0.00104892, "INCLINATION": 34.9438, "RA_OF_ASC_NODE": 344.5898, "ARG_OF_PERICENTER": 261.8761, "MEAN_ANOMALY": 98.077, "EPHEMERIS_TYPE": 0, "CLASSIFICATION_TYPE": "U", "NORAD_CAT_ID": 41887, "ELEMENT_SET_NO": 999, "REV_AT_EPOCH": 50124, "BSTAR": 0.00038099603, "MEAN_MOTION_DOT": 0.00021, "MEAN_MOTION_DDOT": 0}, "tle": {"line1": "1 41887U 16078D   25356.66038543  .00021000  00000+0  38100-3 0  9993", "line2": "2 41887  34.9438 344.5898 0010489 261.8761  98.0770 15.48577323501243"}}, "geometry": {"type": "Point", "coordinates": [167.84903275154818, -4.763550987882136]}}, {"type": "Feature", "properties": {"norad_id": 41888, "name": "CYGFM08", "group": "weather", "lat": -33.92934937038821, "lon": -110.57310794453102, "alt_km": 411.2490470580069, "timestamp": "2025-12-23T05:02:11.666858+00:00", "meta": {"OBJECT_NAME": "CYGFM08", "OBJECT_ID": "2016-078E", "EPOCH": "2025-12-22T07:43:26.360832", "MEAN_MOTION": 15.49794125, "ECCENTRICITY": 0.00118989, "INCLINATION": 34.9467, "RA_OF_ASC_NODE": 329.6834, "ARG_OF_PERICENTER": 281.7617, "MEAN_ANOMALY": 78.177, "EPHEMERIS_TYPE": 0, "CLASSIFICATION_TYPE": "U", "NORAD_CAT_ID": 41888, "ELEMENT_SET_NO": 999, "REV_AT_EPOCH": 50142, "BSTAR": 0.00041801893, "MEAN_MOTION_DOT": 0.00024083, "MEAN_MOTION_DDOT": 0}, "tle": {"line1": "1 41888U 16078E   25356.32183288  .00024083  00000+0  41802-3 0  9991", "line2": "2 41888  34.9467 329.6834 0011898 281.7617  78.1770 15.49794125501427"}}, "geometry": {"type": "Point", "coordinates": [-110.57310794453102, -33.92934937038821]}}, {"type": "Feature", "properties": {"norad_id": 41890, "name": "CYGFM07", "group": "weather", "lat": -31.864775412934115, "lon": -110.09672486918433, "alt_km": 410.87830700026825, "timestamp": "2025-12-23T05:02:11.666869+00:00", "meta": {"OBJECT_NAME": "CYGFM07", "OBJECT_ID": "2016-078G", "EPOCH": "2025-12-22T07:41:22.754400", "MEAN_MOTION": 15.50386414, "ECCENTRICITY": 0.00098473, "INCLINATION": 34.9484, "RA_OF_ASC_NODE": 318.6199, "ARG_OF_PERICENTER": 296.6593, "MEAN_ANOMALY": 63.312, "EPHEMERIS_TYPE": 0, "CLASSIFICATION_TYPE": "U", "NORAD_CAT_ID": 41890, "ELEMENT_SET_NO": 999, "REV_AT_EPOCH": 50144, "BSTAR": 0.00041229816, "MEAN_MOTION_DOT": 0.00024237, "MEAN_MOTION_DDOT": 0}, "tle": {"line1": "1 41890U 16078G   25356.32040225  .00024237  00000+0  41230-3 0  9993", "line2": "2 41890  34.9484 318.6199 0009847 296.6593  63.3120 15.50386414501447"}}, "geometry": {"type": "Point", "coordinates": [-110.09672486918433, -31.864775412934115]}}, {"type": "Feature", "properties": {"norad_id": 41891, "name": "CYGFM03", "group": "weather", "lat": 28.4478735480044, "lon": 83.82198437749562, "alt_km": 416.7137019780557, "timestamp": "2025-12-23T05:02:11.666880+00:00", "meta": {"OBJECT_NAME": "CYGFM03", "OBJECT_ID": "2016-078H", "EPOCH": "2025-12-22T22:19:25.327200", "MEAN_MOTION": 15.50310719, "ECCENTRICITY": 0.00095285, "INCLINATION": 34.9437, "RA_OF_ASC_NODE": 316.5448, "ARG_OF_PERICENTER": 289.6347, "MEAN_ANOMALY": 70.3347, "EPHEMERIS_TYPE": 0, "CLASSIFICATION_TYPE": "U", "NORAD_CAT_ID": 41891, "ELEMENT_SET_NO": 999, "REV_AT_EPOCH": 50151, "BSTAR": 0.00040606082, "MEAN_MOTION_DOT": 0.00023801, "MEAN_MOTION_DDOT": 0}, "tle": {"line1": "1 41891U 16078H   25356.93015425  .00023801  00000+0  40606-3 0  9997", "line2": "2 41891  34.9437 316.5448 0009528 289.6347  70.3347 15.50310719501517"}}, "geometry": {"type": "Point", "coordinates": [83.82198437749562, 28.4478735480044]}}]}